SL-8 R/B                
1 11574U 79089B   26069.16166311  .00000345  00000+0  11231-3 0  9991
2 11574  74.0667  90.1699 0017157 262.7897  97.1309 14.42351210436179
SL-14 R/B               
1 11672U 80005B   26069.13034979  .00000659  00000+0  64127-4 0  9992
2 11672  82.5144 306.8184 0016219 156.8608 203.3345 14.90930937476558
SL-8 R/B                
1 12139U 81003B   26069.06698317  .00021828  00000+0  55974-3 0  9994
2 12139  82.9385 289.6746 0262078 177.3345 182.9362 15.10990524314735
SL-3 R/B                
1 12465U 81046B   26069.17381117  .00014923  00000+0  34673-3 0  9993
2 12465  81.2298 289.1627 0019514  20.6432 339.5594 15.42012061438502
SL-3 R/B                
1 12904U 81103B   26069.16691537  .00006952  00000+0  30837-3 0  9995
2 12904  81.1586 212.8720 0012420 285.3046  74.6812 15.21383954973307
SL-3 R/B                
1 13068U 82013B   26069.17478587  .00005802  00000+0  25110-3 0  9998
2 13068  81.1762 160.2022 0022655 175.9136 184.2286 15.22025244404422
SL-3 R/B                
1 13154U 82039B   26069.18690728  .00003516  00000+0  21237-3 0  9992
2 13154  81.1582 215.3885 0029719 322.8784  37.0385 15.10085569381711
SL-3 R/B                
1 13403U 82079B   26069.12624491  .00008245  00000+0  32832-3 0  9998
2 13403  81.1481 192.5616 0025042 163.4080 196.7979 15.24809134377766
SL-14 R/B               
1 13553U 82092B   26069.17613209  .00000547  00000+0  58749-4 0  9992
2 13553  82.5694 140.9446 0018981 301.8277  87.9960 14.86666845329003
SL-3 R/B                
1 13819U 83010B   26069.21394057  .00021627  00000+0  43382-3 0  9998
2 13819  81.1059   1.6046 0017941  49.3474 310.9327 15.46380042358024
SL-3 R/B                
1 14208U 83075B   26069.14240837  .00013795  00000+0  36353-3 0  9997
2 14208  97.6146  73.7367 0020165 224.1618 135.8017 15.38431564330226
COSMOS 1536             
1 14699U 84013A   26069.11391700  .00007227  00000+0  29800-3 0  9999
2 14699  82.5429 107.4289 0012459 281.6067  78.3771 15.23830686272683
SL-14 R/B               
1 14820U 84027B   26068.96249521  .00000644  00000+0  70784-4 0  9999
2 14820  82.5387 244.7567 0017328 336.9053  23.1383 14.85976757247670
SL-8 R/B                
1 15483U 85006B   26069.01646800  .00000364  00000+0  12918-3 0  9994
2 15483  74.0432 260.5471 0018432 178.3119 297.6652 14.37783120154076
SL-12 R/B(2)            
1 15772U 85042D   26069.18790591  .00000051  00000+0  44175-4 0  9994
2 15772  71.1062  86.6759 0033211 127.3174 300.5054 14.21982481114460
SL-14 R/B               
1 15945U 85069B   26068.94719648  .00000717  00000+0  78246-4 0  9997
2 15945  82.5286  24.6907 0018495 186.8367 173.2600 14.86433530172872
SL-16 R/B               
1 16182U 85097B   26069.19255308 -.00000197  00000+0 -74645-4 0  9991
2 16182  71.0027 139.4960 0009908 259.1753 131.9035 14.16598710 87309
