[{"OBJECT_NAME":"SL-8 R/B","OBJECT_ID":"1979-089B","EPOCH":"2026-03-10T03:52:47.692704","MEAN_MOTION":14.4235121,"ECCENTRICITY":0.0017157,"INCLINATION":74.0667,"RA_OF_ASC_NODE":90.1699,"ARG_OF_PERICENTER":262.7897,"MEAN_ANOMALY":97.1309,"EPHEMERIS_TYPE":0,"CLASSIFICATION_TYPE":"U","NORAD_CAT_ID":11574,"ELEMENT_SET_NO":999,"REV_AT_EPOCH":43617,"BSTAR":0.00011231,"MEAN_MOTION_DOT":3.45e-6,"MEAN_MOTION_DDOT":0},{"OBJECT_NAME":"SL-14 R/B","OBJECT_ID":"1980-005B","EPOCH":"2026-03-10T03:07:42.221856","MEAN_MOTION":14.90930937,"ECCENTRICITY":0.0016219,"INCLINATION":82.5144,"RA_OF_ASC_NODE":306.8184,"ARG_OF_PERICENTER":156.8608,"MEAN_ANOMALY":203.3345,"EPHEMERIS_TYPE":0,"CLASSIFICATION_TYPE":"U","NORAD_CAT_ID":11672,"ELEMENT_SET_NO":999,"REV_AT_EPOCH":47655,"BSTAR":6.4127e-5,"MEAN_MOTION_DOT":6.59e-6,"MEAN_MOTION_DDOT":0},{"OBJECT_NAME":"SL-8 R/B","OBJECT_ID":"1981-003B","EPOCH":"2026-03-10T01:36:27.345888","MEAN_MOTION":15.10990524,"ECCENTRICITY":0.0262078,"INCLINATION":82.9385,"RA_OF_ASC_NODE":289.6746,"ARG_OF_PERICENTER":177.3345,"MEAN_ANOMALY":182.9362,"EPHEMERIS_TYPE":0,"CLASSIFICATION_TYPE":"U","NORAD_CAT_ID":12139,"ELEMENT_SET_NO":999,"REV_AT_EPOCH":31473,"BSTAR":0.00055974,"MEAN_MOTION_DOT":0.00021828,"MEAN_MOTION_DDOT":0},{"OBJECT_NAME":"SL-3 R/B","OBJECT_ID":"1981-046B","EPOCH":"2026-03-10T04:10:17.285088","MEAN_MOTION":15.42012061,"ECCENTRICITY":0.0019514,"INCLINATION":81.2298,"RA_OF_ASC_NODE":289.1627,"ARG_OF_PERICENTER":20.6432,"MEAN_ANOMALY":339.5594,"EPHEMERIS_TYPE":0,"CLASSIFICATION_TYPE":"U","NORAD_CAT_ID":12465,"ELEMENT_SET_NO":999,"REV_AT_EPOCH":43850,"BSTAR":0.00034673,"MEAN_MOTION_DOT":0.00014923,"MEAN_MOTION_DDOT":0},{"OBJECT_NAME":"SL-3 R/B","OBJECT_ID":"1981-103B","EPOCH":"2026-03-10T04:00:21.487968","MEAN_MOTION":15.21383954,"ECCENTRICITY":0.001242,"INCLINATION":81.1586,"RA_OF_ASC_NODE":212.872,"ARG_OF_PERICENTER":285.3046,"MEAN_ANOMALY":74.6812,"EPHEMERIS_TYPE":0,"CLASSIFICATION_TYPE":"U","NORAD_CAT_ID":12904,"ELEMENT_SET_NO":999,"REV_AT_EPOCH":97330,"BSTAR":0.00030837,"MEAN_MOTION_DOT":6.952e-5,"MEAN_MOTION_DDOT":0},{"OBJECT_NAME":"SL-3 R/B","OBJECT_ID":"1982-013B","EPOCH":"2026-03-10T04:11:41.499168","MEAN_MOTION":15.22025244,"ECCENTRICITY":0.0022655,"INCLINATION":81.1762,"RA_OF_ASC_NODE":160.2022,"ARG_OF_PERICENTER":175.9136,"MEAN_ANOMALY":184.2286,"EPHEMERIS_TYPE":0,"CLASSIFICATION_TYPE":"U","NORAD_CAT_ID":13068,"ELEMENT_SET_NO":999,"REV_AT_EPOCH":40442,"BSTAR":0.0002511,"MEAN_MOTION_DOT":5.802e-5,"MEAN_MOTION_DDOT":0},{"OBJECT_NAME":"SL-3 R/B","OBJECT_ID":"1982-039B","EPOCH":"2026-03-10T04:29:08.788992","MEAN_MOTION":15.10085569,"ECCENTRICITY":0.0029719,"INCLINATION":81.1582,"RA_OF_ASC_NODE":215.3885,"ARG_OF_PERICENTER":322.8784,"MEAN_ANOMALY":37.0385,"EPHEMERIS_TYPE":0,"CLASSIFICATION_TYPE":"U","NORAD_CAT_ID":13154,"ELEMENT_SET_NO":999,"REV_AT_EPOCH":38171,"BSTAR":0.00021237,"MEAN_MOTION_DOT":3.516e-5,"MEAN_MOTION_DDOT":0},{"OBJECT_NAME":"SL-3 R/B","OBJECT_ID":"1982-079B","EPOCH":"2026-03-10T03:01:47.560224","MEAN_MOTION":15.24809134,"ECCENTRICITY":0.0025042,"INCLINATION":81.1481,"RA_OF_ASC_NODE":192.5616,"ARG_OF_PERICENTER":163.408,"MEAN_ANOMALY":196.7979,"EPHEMERIS_TYPE":0,"CLASSIFICATION_TYPE":"U","NORAD_CAT_ID":13403,"ELEMENT_SET_NO":999,"REV_AT_EPOCH":37776,"BSTAR":0.00032832,"MEAN_MOTION_DOT":8.245e-5,"MEAN_MOTION_DDOT":0},{"OBJECT_NAME":"SL-14 R/B","OBJECT_ID":"1982-092B","EPOCH":"2026-03-10T04:13:37.812576","MEAN_MOTION":14.86666845,"ECCENTRICITY":0.0018981,"INCLINATION":82.5694,"RA_OF_ASC_NODE":140.9446,"ARG_OF_PERICENTER":301.8277,"MEAN_ANOMALY":87.996,"EPHEMERIS_TYPE":0,"CLASSIFICATION_TYPE":"U","NORAD_CAT_ID":13553,"ELEMENT_SET_NO":999,"REV_AT_EPOCH":32900,"BSTAR":5.8749e-5,"MEAN_MOTION_DOT":5.47e-6,"MEAN_MOTION_DDOT":0},{"OBJECT_NAME":"SL-3 R/B","OBJECT_ID":"1983-010B","EPOCH":"2026-03-10T05:08:04.465248","MEAN_MOTION":15.46380042,"ECCENTRICITY":0.0017941,"INCLINATION":81.1059,"RA_OF_ASC_NODE":1.6046,"ARG_OF_PERICENTER":49.3474,"MEAN_ANOMALY":310.9327,"EPHEMERIS_TYPE":0,"CLASSIFICATION_TYPE":"U","NORAD_CAT_ID":13819,"ELEMENT_SET_NO":999,"REV_AT_EPOCH":35802,"BSTAR":0.00043382,"MEAN_MOTION_DOT":0.00021627,"MEAN_MOTION_DDOT":0},{"OBJECT_NAME":"SL-3 R/B","OBJECT_ID":"1983-075B","EPOCH":"2026-03-10T03:25:04.083168","MEAN_MOTION":15.38431564,"ECCENTRICITY":0.0020165,"INCLINATION":97.6146,"RA_OF_ASC_NODE":73.7367,"ARG_OF_PERICENTER":224.1618,"MEAN_ANOMALY":135.8017,"EPHEMERIS_TYPE":0,"CLASSIFICATION_TYPE":"U","NORAD_CAT_ID":14208,"ELEMENT_SET_NO":999,"REV_AT_EPOCH":33022,"BSTAR":0.00036353,"MEAN_MOTION_DOT":0.00013795,"MEAN_MOTION_DDOT":0},{"OBJECT_NAME":"COSMOS 1536","OBJECT_ID":"1984-013A","EPOCH":"2026-03-10T02:44:02.428800","MEAN_MOTION":15.23830686,"ECCENTRICITY":0.0012459,"INCLINATION":82.5429,"RA_OF_ASC_NODE":107.4289,"ARG_OF_PERICENTER":281.6067,"MEAN_ANOMALY":78.3771,"EPHEMERIS_TYPE":0,"CLASSIFICATION_TYPE":"U","NORAD_CAT_ID":14699,"ELEMENT_SET_NO":999,"REV_AT_EPOCH":27268,"BSTAR":0.000298,"MEAN_MOTION_DOT":7.227e-5,"MEAN_MOTION_DDOT":0},{"OBJECT_NAME":"SL-14 R/B","OBJECT_ID":"1984-027B","EPOCH":"2026-03-09T23:05:59.586144","MEAN_MOTION":14.85976757,"ECCENTRICITY":0.0017328,"INCLINATION":82.5387,"RA_OF_ASC_NODE":244.7567,"ARG_OF_PERICENTER":336.9053,"MEAN_ANOMALY":23.1383,"EPHEMERIS_TYPE":0,"CLASSIFICATION_TYPE":"U","NORAD_CAT_ID":14820,"ELEMENT_SET_NO":999,"REV_AT_EPOCH":24767,"BSTAR":7.0784e-5,"MEAN_MOTION_DOT":6.44e-6,"MEAN_MOTION_DDOT":0},{"OBJECT_NAME":"SL-8 R/B","OBJECT_ID":"1985-006B","EPOCH":"2026-03-10T00:23:42.835200","MEAN_MOTION":14.3778312,"ECCENTRICITY":0.0018432,"INCLINATION":74.0432,"RA_OF_ASC_NODE":260.5471,"ARG_OF_PERICENTER":178.3119,"MEAN_ANOMALY":297.6652,"EPHEMERIS_TYPE":0,"CLASSIFICATION_TYPE":"U","NORAD_CAT_ID":15483,"ELEMENT_SET_NO":999,"REV_AT_EPOCH":15407,"BSTAR":0.00012918,"MEAN_MOTION_DOT":3.64e-6,"MEAN_MOTION_DDOT":0},{"OBJECT_NAME":"SL-12 R/B(2)","OBJECT_ID":"1985-042D","EPOCH":"2026-03-10T04:30:35.070624","MEAN_MOTION":14.21982481,"ECCENTRICITY":0.0033211,"INCLINATION":71.1062,"RA_OF_ASC_NODE":86.6759,"ARG_OF_PERICENTER":127.3174,"MEAN_ANOMALY":300.5054,"EPHEMERIS_TYPE":0,"CLASSIFICATION_TYPE":"U","NORAD_CAT_ID":15772,"ELEMENT_SET_NO":999,"REV_AT_EPOCH":11446,"BSTAR":4.4175e-5,"MEAN_MOTION_DOT":5.1e-7,"MEAN_MOTION_DDOT":0},{"OBJECT_NAME":"SL-14 R/B","OBJECT_ID":"1985-069B","EPOCH":"2026-03-09T22:43:57.775872","MEAN_MOTION":14.8643353,"ECCENTRICITY":0.0018495,"INCLINATION":82.5286,"RA_OF_ASC_NODE":24.6907,"ARG_OF_PERICENTER":186.8367,"MEAN_ANOMALY":173.26,"EPHEMERIS_TYPE":0,"CLASSIFICATION_TYPE":"U","NORAD_CAT_ID":15945,"ELEMENT_SET_NO":999,"REV_AT_EPOCH":17287,"BSTAR":7.8246e-5,"MEAN_MOTION_DOT":7.17e-6,"MEAN_MOTION_DDOT":0},{"OBJECT_NAME":"SL-16 R/B","OBJECT_ID":"1985-097B","EPOCH":"2026-03-10T04:37:16.586112","MEAN_MOTION":14.1659871,"ECCENTRICITY":0.0009908,"INCLINATION":71.0027,"RA_OF_ASC_NODE":139.496,"ARG_OF_PERICENTER":259.1753,"MEAN_ANOMALY":131.9035,"EPHEMERIS_TYPE":0,"CLASSIFICATION_TYPE":"U","NORAD_CAT_ID":16182,"ELEMENT_SET_NO":999,"REV_AT_EPOCH":8730,"BSTAR":-7.4645e-5,"MEAN_MOTION_DOT":-1.97e-6,"MEAN_MOTION_DDOT":0}]
